[{"OBJECT_NAME":"KANOPUS-V-IK","OBJECT_ID":"2017-042A","EPOCH":"2026-03-09T19:17:12.916608","MEAN_MOTION":15.22854595,"ECCENTRICITY":0.00016151,"INCLINATION":97.364,"RA_OF_ASC_NODE":336.3354,"ARG_OF_PERICENTER":87.4516,"MEAN_ANOMALY":272.6906,"EPHEMERIS_TYPE":0,"CLASSIFICATION_TYPE":"U","NORAD_CAT_ID":42825,"ELEMENT_SET_NO":999,"REV_AT_EPOCH":48024,"BSTAR":0.00016848135,"MEAN_MOTION_DOT":3.875e-5,"MEAN_MOTION_DDOT":0},{"OBJECT_NAME":"STARLINK-6094","OBJECT_ID":"2023-046AF","EPOCH":"2026-03-09T22:00:01.999584","MEAN_MOTION":15.16787641,"ECCENTRICITY":0.00013389,"INCLINATION":42.9997,"RA_OF_ASC_NODE":156.7902,"ARG_OF_PERICENTER":276.448,"MEAN_ANOMALY":201.6729,"EPHEMERIS_TYPE":0,"CLASSIFICATION_TYPE":"U","NORAD_CAT_ID":56122,"ELEMENT_SET_NO":999,"REV_AT_EPOCH":577,"BSTAR":0.059129505,"MEAN_MOTION_DOT":0.01280249,"MEAN_MOTION_DDOT":0}]
